OBJECT_NAME,OBJECT_ID,EPOCH,MEAN_MOTION,ECCENTRICITY,INCLINATION,RA_OF_ASC_NODE,ARG_OF_PERICENTER,MEAN_ANOMALY,EPHEMERIS_TYPE,CLASSIFICATION_TYPE,NORAD_CAT_ID,ELEMENT_SET_NO,REV_AT_EPOCH,BSTAR,MEAN_MOTION_DOT,MEAN_MOTION_DDOT
GSAT0225 (GALILEO 29),2024-079A,2026-07-01T18:46:55.511616,1.70473947,.00004196,55.1266,100.6726,302.1168,241.0834,0,U,59598,999,1356,0,-.14E-6,0
GSAT0227 (GALILEO 30),2024-079C,2026-07-02T06:05:53.832192,1.70474094,.00022801,55.1233,100.6575,54.9212,305.1059,0,U,59600,999,1362,0,-.12E-6,0
GSAT0232 (GALILEO 32),2024-167A,2026-07-01T07:32:38.669280,1.70474427,.00062836,55.1822,220.9262,229.8495,129.0304,0,U,61182,999,1111,0,.74E-6,0
GSAT0226 (GALILEO 31),2024-167B,2026-06-29T09:45:13.487904,1.70474415,.00030044,55.1811,220.9855,232.0216,127.2488,0,U,61183,999,1105,0,.72E-6,0
BEIDOU-3 M25 (C47),2024-168B,2026-07-01T22:41:00.741408,1.86230336,.0003241,54.4595,301.7303,295.9359,56.4940,0,U,61186,999,1205,0,-.64E-6,0
BEIDOU-3 M27 (C49),2024-168C,2026-07-01T18:02:37.839840,1.86230411,.00012086,54.4550,301.7198,46.7506,311.0994,0,U,61187,999,952,0,-.64E-6,0
GPS BIII-7  (PRN 01),2024-242A,2026-06-29T19:34:38.856864,2.00572141,.00176262,54.8437,333.6698,4.4449,3.3802,0,U,62339,999,1151,0,-.94E-6,0
QZS-6 (QZSS/PRN 200),2025-023A,2026-07-02T15:26:20.332032,1.00271676,.00020745,0.0443,284.3870,191.4243,126.9873,0,U,62876,999,510,0,-.223E-5,0
COSMOS 2584 (704K),2025-042A,2026-07-02T03:45:22.736160,2.13103981,.00061778,65.0934,72.2932,224.7422,135.2742,0,U,63130,999,1036,0,-.11E-6,0
GPS BIII-8  (PRN 21),2025-116A,2026-07-01T19:12:32.597856,2.00575100,.00081212,55.2438,30.5429,344.2074,199.7112,0,U,64202,999,816,0,-.64E-6,0
COSMOS 2596 (708K),2025-206B,2026-06-27T20:03:44.455680,2.13101038,.00110618,64.6279,314.6147,310.3600,91.2409,0,U,65590,999,614,0,-.8E-6,0
GSAT0233 (GALILEO 33),2025-302A,2026-06-30T01:40:40.052064,1.70474266,.00009363,54.3421,101.7645,196.3354,306.6459,0,U,67160,999,334,0,-.24E-6,0
GSAT0234 (GALILEO 34),2025-302C,2026-07-01T14:27:03.554208,1.70474235,.00025586,54.3448,101.7199,311.1283,232.3172,0,U,67162,999,342,0,-.15E-6,0
GPS BIII-9  (PRN 20),2026-017A,2026-07-01T03:46:09.656544,2.00570850,.00212959,55.0967,88.1946,258.4465,101.3419,0,U,67588,999,43189,0,-.25E-6,0
GPS BIII-10 (PRN 13),2026-087A,2026-07-01T20:46:26.008320,2.00571676,.00206073,54.9627,207.2074,106.6329,250.3869,0,U,68791,999,112,0,.69E-6,0
